{
    "links": {
        "self": "http://www.neowsapp.com/rest/v1/neo/3435550?api_key=iIulBulltgU6a56xZRHN4H3l9WmuAYTsLGpBGhQ2"
    },
    "id": "3435550",
    "neo_reference_id": "3435550",
    "name": "(2008 VJ)",
    "designation": "2008 VJ",
    "nasa_jpl_url": "http://ssd.jpl.nasa.gov/sbdb.cgi?sstr=3435550",
    "absolute_magnitude_h": 22.7,
    "estimated_diameter": {
        "kilometers": {
            "estimated_diameter_min": 0.0766575574,
            "estimated_diameter_max": 0.1714115092
        },
        "meters": {
            "estimated_diameter_min": 76.6575573531,
            "estimated_diameter_max": 171.4115092306
        },
        "miles": {
            "estimated_diameter_min": 0.0476327831,
            "estimated_diameter_max": 0.1065101409
        },
        "feet": {
            "estimated_diameter_min": 251.5011804664,
            "estimated_diameter_max": 562.3737359442
        }
    },
    "is_potentially_hazardous_asteroid": false,
    "close_approach_data": [
        {
            "close_approach_date": "2008-05-26",
            "close_approach_date_full": "2008-May-26 06:45",
            "epoch_date_close_approach": 1211784300000,
            "relative_velocity": {
                "kilometers_per_second": "13.0368868578",
                "kilometers_per_hour": "46932.7926880818",
                "miles_per_hour": "29162.2122122139"
            },
            "miss_distance": {
                "astronomical": "0.3402977694",
                "lunar": "132.3758322966",
                "kilometers": "50907821.467991178",
                "miles": "31632653.4345791364"
            },
            "orbiting_body": "Earth"
        },
        {
            "close_approach_date": "2008-10-16",
            "close_approach_date_full": "2008-Oct-16 21:35",
            "epoch_date_close_approach": 1224192900000,
            "relative_velocity": {
                "kilometers_per_second": "14.1300017454",
                "kilometers_per_hour": "50868.0062833129",
                "miles_per_hour": "31607.4009042063"
            },
            "miss_distance": {
                "astronomical": "0.3105444383",
                "lunar": "120.8017864987",
                "kilometers": "46456786.510026421",
                "miles": "28866908.5609937698"
            },
            "orbiting_body": "Earth"
        }
    ],
    "orbital_data": {
        "orbit_id": "8",
        "orbit_determination_date": "2017-04-06 09:02:17",
        "first_observation_date": "2008-11-02",
        "last_observation_date": "2008-11-09",
        "data_arc_in_days": 7,
        "observations_used": 15,
        "orbit_uncertainty": "9",
        "minimum_orbit_intersection": ".16653",
        "jupiter_tisserand_invariant": "4.033",
        "epoch_osculation": "2454775.5",
        "eccentricity": ".4539236302642837",
        "semi_major_axis": "1.667749662750065",
        "inclination": "25.17545554396709",
        "ascending_node_longitude": "227.5956640954527",
        "orbital_period": "786.6738594072519",
        "perihelion_distance": ".9107186814625208",
        "perihelion_argument": "82.81325718320993",
        "aphelion_distance": "2.42478064403761",
        "perihelion_time": "2454683.857341079537",
        "mean_anomaly": "41.93778249632601",
        "mean_motion": ".4576229344537457",
        "equinox": "J2000",
        "orbit_class": {
            "orbit_class_type": "APO",
            "orbit_class_description": "Near-Earth asteroid orbits which cross the Earth’s orbit similar to that of 1862 Apollo",
            "orbit_class_range": "a (semi-major axis) > 1.0 AU; q (perihelion) < 1.017 AU"
        }
    },
    "is_sentry_object": false
}